{"type": "FeatureCollection", "features": [ {"type": "Feature", "properties": {"norad_id": 66529, "name": "STARLINK-35933", "group": "last-30-days", "lat": -37.22596322998427, "lon": 55.42210580816334, "alt_km": 346.48666666151803, "timestamp": "2025-12-03T06:58:42.032838+00:00", "meta": {"OBJECT_NAME": "STARLINK-35933", "OBJECT_ID": "2025-265P", "EPOCH": "2025-12-02T20:00:03.000384", "MEAN_MOTION": 15.75114526, "ECCENTRICITY": 0.0001694, "INCLINATION": 42.9997, "RA_OF_ASC_NODE": 112.8192, "ARG_OF_PERICENTER": 271.3139, "MEAN_ANOMALY": 309.4151, "EPHEMERIS_TYPE": 0, "CLASSIFICATION_TYPE": "U", "NORAD_CAT_ID": 66529, "ELEMENT_SET_NO": 999, "REV_AT_EPOCH": 340, "BSTAR": -0.00034966, "MEAN_MOTION_DOT": -0.00054024, "MEAN_MOTION_DDOT": 0}, "tle": {"line1": "1 66529U 25265P   25336.83336806 -.00054024  00000+0 -34966-3 0  9991", "line2": "2 66529  42.9997 112.8192 0001694 271.3139 309.4151 15.75114526  3407"}}, "geometry": {"type": "Point", "coordinates": [55.42210580816334, -37.22596322998427]}}, {"type": "Feature", "properties": {"norad_id": 66530, "name": "STARLINK-35961", "group": "last-30-days", "lat": -36.49497146668939, "lon": 57.48139735287186, "alt_km": 346.48975879019963, "timestamp": "2025-12-03T06:58:42.032849+00:00", "meta": {"OBJECT_NAME": "STARLINK-35961", "OBJECT_ID": "2025-265Q", "EPOCH": "2025-12-02T20:00:03.000384", "MEAN_MOTION": 15.74967547, "ECCENTRICITY": 0.0001534, "INCLINATION": 42.9995, "RA_OF_ASC_NODE": 112.8141, "ARG_OF_PERICENTER": 273.0758, "MEAN_ANOMALY": 309.5574, "EPHEMERIS_TYPE": 0, "CLASSIFICATION_TYPE": "U", "NORAD_CAT_ID": 66530, "ELEMENT_SET_NO": 999, "REV_AT_EPOCH": 340, "BSTAR": 0.00092685, "MEAN_MOTION_DOT": 0.00143897, "MEAN_MOTION_DDOT": 0}, "tle": {"line1": "1 66530U 25265Q   25336.83336806  .00143897  00000+0  92685-3 0  9990", "line2": "2 66530  42.9995 112.8141 0001534 273.0758 309.5574 15.74967547  3408"}}, "geometry": {"type": "Point", "coordinates": [57.48139735287186, -36.49497146668939]}}, {"type": "Feature", "properties": {"norad_id": 66531, "name": "STARLINK-35960", "group": "last-30-days", "lat": -35.685221816487505, "lon": 59.61410732115313, "alt_km": 346.5808103681902, "timestamp": "2025-12-03T06:58:42.032859+00:00", "meta": {"OBJECT_NAME": "STARLINK-35960", "OBJECT_ID": "2025-265R", "EPOCH": "2025-12-02T20:00:03.000384", "MEAN_MOTION": 15.74973205, "ECCENTRICITY": 0.0001383, "INCLINATION": 42.9997, "RA_OF_ASC_NODE": 112.8089, "ARG_OF_PERICENTER": 278.3879, "MEAN_ANOMALY": 306.1711, "EPHEMERIS_TYPE": 0, "CLASSIFICATION_TYPE": "U", "NORAD_CAT_ID": 66531, "ELEMENT_SET_NO": 999, "REV_AT_EPOCH": 340, "BSTAR": 0.0007272, "MEAN_MOTION_DOT": 0.001124, "MEAN_MOTION_DDOT": 0}, "tle": {"line1": "1 66531U 25265R   25336.83336806  .00112400  00000+0  72720-3 0  9995", "line2": "2 66531  42.9997 112.8089 0001383 278.3879 306.1711 15.74973205  3400"}}, "geometry": {"type": "Point", "coordinates": [59.61410732115313, -35.685221816487505]}}, {"type": "Feature", "properties": {"norad_id": 66532, "name": "STARLINK-35914", "group": "last-30-days", "lat": -34.83049758371171, "lon": 61.72169474494442, "alt_km": 346.3671591948496, "timestamp": "2025-12-03T06:58:42.032869+00:00", "meta": {"OBJECT_NAME": "STARLINK-35914", "OBJECT_ID": "2025-265S", "EPOCH": "2025-12-02T20:00:03.000384", "MEAN_MOTION": 15.74953681, "ECCENTRICITY": 0.0001519, "INCLINATION": 42.9994, "RA_OF_ASC_NODE": 112.8047, "ARG_OF_PERICENTER": 277.8555, "MEAN_ANOMALY": 308.6142, "EPHEMERIS_TYPE": 0, "CLASSIFICATION_TYPE": "U", "NORAD_CAT_ID": 66532, "ELEMENT_SET_NO": 999, "REV_AT_EPOCH": 340, "BSTAR": 0.0011375, "MEAN_MOTION_DOT": 0.00177312, "MEAN_MOTION_DDOT": 0}, "tle": {"line1": "1 66532U 25265S   25336.83336806  .00177312  00000+0  11375-2 0  9997", "line2": "2 66532  42.9994 112.8047 0001519 277.8555 308.6142 15.74953681  3409"}}, "geometry": {"type": "Point", "coordinates": [61.72169474494442, -34.83049758371171]}}, {"type": "Feature", "properties": {"norad_id": 66533, "name": "STARLINK-35707", "group": "last-30-days", "lat": -33.95343934083298, "lon": 63.7546473897542, "alt_km": 346.52518832314036, "timestamp": "2025-12-03T06:58:42.032879+00:00", "meta": {"OBJECT_NAME": "STARLINK-35707", "OBJECT_ID": "2025-265T", "EPOCH": "2025-12-02T20:00:03.000384", "MEAN_MOTION": 15.74975198, "ECCENTRICITY": 0.0001328, "INCLINATION": 42.9995, "RA_OF_ASC_NODE": 112.7994, "ARG_OF_PERICENTER": 283.0561, "MEAN_ANOMALY": 305.3302, "EPHEMERIS_TYPE": 0, "CLASSIFICATION_TYPE": "U", "NORAD_CAT_ID": 66533, "ELEMENT_SET_NO": 999, "REV_AT_EPOCH": 340, "BSTAR": 0.00069429, "MEAN_MOTION_DOT": 0.00107234, "MEAN_MOTION_DDOT": 0}, "tle": {"line1": "1 66533U 25265T   25336.83336806  .00107234  00000+0  69429-3 0  9998", "line2": "2 66533  42.9995 112.7994 0001328 283.0561 305.3302 15.74975198  3404"}}, "geometry": {"type": "Point", "coordinates": [63.7546473897542, -33.95343934083298]}}, {"type": "Feature", "properties": {"norad_id": 66534, "name": "STARLINK-35976", "group": "last-30-days", "lat": -33.015218924198095, "lon": 65.80736682964009, "alt_km": 346.4265141676442, "timestamp": "2025-12-03T06:58:42.032891+00:00", "meta": {"OBJECT_NAME": "STARLINK-35976", "OBJECT_ID": "2025-265U", "EPOCH": "2025-12-02T20:00:03.000384", "MEAN_MOTION": 15.74971361, "ECCENTRICITY": 0.0001484, "INCLINATION": 42.9998, "RA_OF_ASC_NODE": 112.7957, "ARG_OF_PERICENTER": 265.9362, "MEAN_ANOMALY": 324.3745, "EPHEMERIS_TYPE": 0, "CLASSIFICATION_TYPE": "U", "NORAD_CAT_ID": 66534, "ELEMENT_SET_NO": 999, "REV_AT_EPOCH": 340, "BSTAR": 0.00098814, "MEAN_MOTION_DOT": 0.00153648, "MEAN_MOTION_DDOT": 0}, "tle": {"line1": "1 66534U 25265U   25336.83336806  .00153648  00000+0  98814-3 0  9999", "line2": "2 66534  42.9998 112.7957 0001484 265.9362 324.3745 15.74971361  3408"}}, "geometry": {"type": "Point", "coordinates": [65.80736682964009, -33.015218924198095]}}, {"type": "Feature", "properties": {"norad_id": 66535, "name": "STARLINK-35514", "group": "last-30-days", "lat": -32.0777583259071, "lon": 67.74580541960859, "alt_km": 346.21753343599175, "timestamp": "2025-12-03T06:58:42.032901+00:00", "meta": {"OBJECT_NAME": "STARLINK-35514", "OBJECT_ID": "2025-265V", "EPOCH": "2025-12-02T20:00:03.000384", "MEAN_MOTION": 15.74973926, "ECCENTRICITY": 0.0001644, "INCLINATION": 42.9998, "RA_OF_ASC_NODE": 112.7904, "ARG_OF_PERICENTER": 278.4561, "MEAN_ANOMALY": 313.7557, "EPHEMERIS_TYPE": 0, "CLASSIFICATION_TYPE": "U", "NORAD_CAT_ID": 66535, "ELEMENT_SET_NO": 999, "REV_AT_EPOCH": 340, "BSTAR": 0.0008701, "MEAN_MOTION_DOT": 0.0013495, "MEAN_MOTION_DDOT": 0}, "tle": {"line1": "1 66535U 25265V   25336.83336806  .00134950  00000+0  87010-3 0  9991", "line2": "2 66535  42.9998 112.7904 0001644 278.4561 313.7557 15.74973926  3401"}}, "geometry": {"type": "Point", "coordinates": [67.74580541960859, -32.0777583259071]}}, {"type": "Feature", "properties": {"norad_id": 66536, "name": "STARLINK-35640", "group": "last-30-days", "lat": -31.10231090364661, "lon": 69.66188924343281, "alt_km": 346.2976393114859, "timestamp": "2025-12-03T06:58:42.032910+00:00", "meta": {"OBJECT_NAME": "STARLINK-35640", "OBJECT_ID": "2025-265W", "EPOCH": "2025-12-02T20:00:03.000384", "MEAN_MOTION": 15.74961449, "ECCENTRICITY": 0.0001566, "INCLINATION": 42.9997, "RA_OF_ASC_NODE": 112.7858, "ARG_OF_PERICENTER": 275.3897, "MEAN_ANOMALY": 318.7526, "EPHEMERIS_TYPE": 0, "CLASSIFICATION_TYPE": "U", "NORAD_CAT_ID": 66536, "ELEMENT_SET_NO": 999, "REV_AT_EPOCH": 338, "BSTAR": 0.00083715, "MEAN_MOTION_DOT": 0.00129669, "MEAN_MOTION_DDOT": 0}, "tle": {"line1": "1 66536U 25265W   25336.83336806  .00129669  00000+0  83715-3 0  9991", "line2": "2 66536  42.9997 112.7858 0001566 275.3897 318.7526 15.74961449  3385"}}, "geometry": {"type": "Point", "coordinates": [69.66188924343281, -31.10231090364661]}}, {"type": "Feature", "properties": {"norad_id": 66537, "name": "STARLINK-35582", "group": "last-30-days", "lat": -30.102302614625714, "lon": 71.53200701983651, "alt_km": 346.29465651195096, "timestamp": "2025-12-03T06:58:42.032920+00:00", "meta": {"OBJECT_NAME": "STARLINK-35582", "OBJECT_ID": "2025-265X", "EPOCH": "2025-12-02T20:00:03.000384", "MEAN_MOTION": 15.74988729, "ECCENTRICITY": 0.0001729, "INCLINATION": 43, "RA_OF_ASC_NODE": 112.7803, "ARG_OF_PERICENTER": 273.3449, "MEAN_ANOMALY": 322.7083, "EPHEMERIS_TYPE": 0, "CLASSIFICATION_TYPE": "U", "NORAD_CAT_ID": 66537, "ELEMENT_SET_NO": 999, "REV_AT_EPOCH": 340, "BSTAR": 0.00034443, "MEAN_MOTION_DOT": 0.00052645, "MEAN_MOTION_DDOT": 0}, "tle": {"line1": "1 66537U 25265X   25336.83336806  .00052645  00000+0  34443-3 0  9995", "line2": "2 66537  43.0000 112.7803 0001729 273.3449 322.7083 15.74988729  3401"}}, "geometry": {"type": "Point", "coordinates": [71.53200701983651, -30.102302614625714]}}, {"type": "Feature", "properties": {"norad_id": 66538, "name": "STARLINK-35577", "group": "last-30-days", "lat": -29.053731949403474, "lon": 73.40287951392239, "alt_km": 346.204561802896, "timestamp": "2025-12-03T06:58:42.032929+00:00", "meta": {"OBJECT_NAME": "STARLINK-35577", "OBJECT_ID": "2025-265Y", "EPOCH": "2025-12-02T20:00:03.000384", "MEAN_MOTION": 15.74986306, "ECCENTRICITY": 0.0001561, "INCLINATION": 42.9998, "RA_OF_ASC_NODE": 112.7752, "ARG_OF_PERICENTER": 277.1043, "MEAN_ANOMALY": 320.8648, "EPHEMERIS_TYPE": 0, "CLASSIFICATION_TYPE": "U", "NORAD_CAT_ID": 66538, "ELEMENT_SET_NO": 999, "REV_AT_EPOCH": 340, "BSTAR": 0.00061433, "MEAN_MOTION_DOT": 0.00094736, "MEAN_MOTION_DDOT": 0}, "tle": {"line1": "1 66538U 25265Y   25336.83336806  .00094736  00000+0  61433-3 0  9992", "line2": "2 66538  42.9998 112.7752 0001561 277.1043 320.8648 15.74986306  3400"}}, "geometry": {"type": "Point", "coordinates": [73.40287951392239, -29.053731949403474]}}]}